KUIPER-00044            
1 64505U 25134F   26018.50792570  .00000586  00000+0  10618-3 0  9994
2 64505  51.8998 108.4953 0011420 106.4285 253.7934 14.79925221 32455
KUIPER-00046            
1 64506U 25134G   26018.91670139  .00005653  00000+0  80803-3 0  9999
2 64506  51.8988 103.1171 0005746 120.2620 254.4065 14.77862569  5524
KUIPER-00047            
1 64507U 25134H   26018.84230762  .00003871  00000+0  57870-3 0  9994
2 64507  51.8998  75.2614 0001516   1.9569 358.1398 14.76661804 32940
KUIPER-00048            
1 64508U 25134J   26018.54188596 -.00004033  00000+0 -50088-3 0  9996
2 64508  51.9003  77.3357 0002163 277.2569  82.8147 14.79887400 32895
KUIPER-00049            
1 64509U 25134K   26018.45918148  .00004609  00000+0  63292-3 0  9999
2 64509  51.9008  91.1735 0002262 128.6269 231.4896 14.79948521 32694
KUIPER-00050            
1 64510U 25134L   26018.89968533  .00006402  00000+0  57169-3 0  9991
2 64510  51.8907  78.2429 0004765 142.5373 217.5930 14.97026182 32919
KUIPER-00051            
1 64511U 25134M   26018.86712910  .00003404  00000+0  47554-3 0  9991
2 64511  51.9022  86.9412 0001568 133.4654 226.6439 14.79917208 32784
KUIPER-00052            
1 64512U 25134N   26018.91670139  .00097093  00000+0  49424-3 0  9999
2 64512  51.8589   4.2382 0003166 115.1577 201.3279 15.80645440  5947
