<?xml version="1.0" encoding="UTF-8"?>
<ndm xmlns:xsi="http://www.w3.org/2001/XMLSchema-instance" xsi:noNamespaceSchemaLocation="https://sanaregistry.org/r/ndmxml_unqualified/ndmxml-2.0.0-master-2.0.xsd">
<omm id="CCSDS_OMM_VERS" version="2.0">
<header><CREATION_DATE/><ORIGINATOR/></header><body><segment><metadata><OBJECT_NAME>KUIPER-00044</OBJECT_NAME><OBJECT_ID>2025-134F</OBJECT_ID><CENTER_NAME>EARTH</CENTER_NAME><REF_FRAME>TEME</REF_FRAME><TIME_SYSTEM>UTC</TIME_SYSTEM><MEAN_ELEMENT_THEORY>SGP4</MEAN_ELEMENT_THEORY></metadata><data><meanElements><EPOCH>2026-01-18T12:11:24.780480</EPOCH><MEAN_MOTION>14.79925221</MEAN_MOTION><ECCENTRICITY>.00114208</ECCENTRICITY><INCLINATION>51.8998</INCLINATION><RA_OF_ASC_NODE>108.4953</RA_OF_ASC_NODE><ARG_OF_PERICENTER>106.4285</ARG_OF_PERICENTER><MEAN_ANOMALY>253.7934</MEAN_ANOMALY></meanElements><tleParameters><EPHEMERIS_TYPE>0</EPHEMERIS_TYPE><CLASSIFICATION_TYPE>U</CLASSIFICATION_TYPE><NORAD_CAT_ID>64505</NORAD_CAT_ID><ELEMENT_SET_NO>999</ELEMENT_SET_NO><REV_AT_EPOCH>3245</REV_AT_EPOCH><BSTAR>.10618298E-3</BSTAR><MEAN_MOTION_DOT>.586E-5</MEAN_MOTION_DOT><MEAN_MOTION_DDOT>0</MEAN_MOTION_DDOT></tleParameters></data></segment></body></omm>
<omm id="CCSDS_OMM_VERS" version="2.0">
<header><CREATION_DATE/><ORIGINATOR/></header><body><segment><metadata><OBJECT_NAME>KUIPER-00046</OBJECT_NAME><OBJECT_ID>2025-134G</OBJECT_ID><CENTER_NAME>EARTH</CENTER_NAME><REF_FRAME>TEME</REF_FRAME><TIME_SYSTEM>UTC</TIME_SYSTEM><MEAN_ELEMENT_THEORY>SGP4</MEAN_ELEMENT_THEORY></metadata><data><meanElements><EPOCH>2026-01-18T22:00:03.000096</EPOCH><MEAN_MOTION>14.77862569</MEAN_MOTION><ECCENTRICITY>.00057466</ECCENTRICITY><INCLINATION>51.8988</INCLINATION><RA_OF_ASC_NODE>103.1171</RA_OF_ASC_NODE><ARG_OF_PERICENTER>120.2620</ARG_OF_PERICENTER><MEAN_ANOMALY>254.4065</MEAN_ANOMALY></meanElements><tleParameters><EPHEMERIS_TYPE>0</EPHEMERIS_TYPE><CLASSIFICATION_TYPE>U</CLASSIFICATION_TYPE><NORAD_CAT_ID>64506</NORAD_CAT_ID><ELEMENT_SET_NO>999</ELEMENT_SET_NO><REV_AT_EPOCH>552</REV_AT_EPOCH><BSTAR>.80803006E-3</BSTAR><MEAN_MOTION_DOT>.5653E-4</MEAN_MOTION_DOT><MEAN_MOTION_DDOT>0</MEAN_MOTION_DDOT></tleParameters></data></segment></body></omm>
<omm id="CCSDS_OMM_VERS" version="2.0">
<header><CREATION_DATE/><ORIGINATOR/></header><body><segment><metadata><OBJECT_NAME>KUIPER-00047</OBJECT_NAME><OBJECT_ID>2025-134H</OBJECT_ID><CENTER_NAME>EARTH</CENTER_NAME><REF_FRAME>TEME</REF_FRAME><TIME_SYSTEM>UTC</TIME_SYSTEM><MEAN_ELEMENT_THEORY>SGP4</MEAN_ELEMENT_THEORY></metadata><data><meanElements><EPOCH>2026-01-18T20:12:55.378368</EPOCH><MEAN_MOTION>14.76661804</MEAN_MOTION><ECCENTRICITY>.00015166</ECCENTRICITY><INCLINATION>51.8998</INCLINATION><RA_OF_ASC_NODE>75.2614</RA_OF_ASC_NODE><ARG_OF_PERICENTER>1.9569</ARG_OF_PERICENTER><MEAN_ANOMALY>358.1398</MEAN_ANOMALY></meanElements><tleParameters><EPHEMERIS_TYPE>0</EPHEMERIS_TYPE><CLASSIFICATION_TYPE>U</CLASSIFICATION_TYPE><NORAD_CAT_ID>64507</NORAD_CAT_ID><ELEMENT_SET_NO>999</ELEMENT_SET_NO><REV_AT_EPOCH>3294</REV_AT_EPOCH><BSTAR>.57870164E-3</BSTAR><MEAN_MOTION_DOT>.3871E-4</MEAN_MOTION_DOT><MEAN_MOTION_DDOT>0</MEAN_MOTION_DDOT></tleParameters></data></segment></body></omm>
<omm id="CCSDS_OMM_VERS" version="2.0">
<header><CREATION_DATE/><ORIGINATOR/></header><body><segment><metadata><OBJECT_NAME>KUIPER-00048</OBJECT_NAME><OBJECT_ID>2025-134J</OBJECT_ID><CENTER_NAME>EARTH</CENTER_NAME><REF_FRAME>TEME</REF_FRAME><TIME_SYSTEM>UTC</TIME_SYSTEM><MEAN_ELEMENT_THEORY>SGP4</MEAN_ELEMENT_THEORY></metadata><data><meanElements><EPOCH>2026-01-18T13:00:18.946944</EPOCH><MEAN_MOTION>14.79887400</MEAN_MOTION><ECCENTRICITY>.00021636</ECCENTRICITY><INCLINATION>51.9003</INCLINATION><RA_OF_ASC_NODE>77.3357</RA_OF_ASC_NODE><ARG_OF_PERICENTER>277.2569</ARG_OF_PERICENTER><MEAN_ANOMALY>82.8147</MEAN_ANOMALY></meanElements><tleParameters><EPHEMERIS_TYPE>0</EPHEMERIS_TYPE><CLASSIFICATION_TYPE>U</CLASSIFICATION_TYPE><NORAD_CAT_ID>64508</NORAD_CAT_ID><ELEMENT_SET_NO>999</ELEMENT_SET_NO><REV_AT_EPOCH>3289</REV_AT_EPOCH><BSTAR>-.50088002E-3</BSTAR><MEAN_MOTION_DOT>-.4033E-4</MEAN_MOTION_DOT><MEAN_MOTION_DDOT>0</MEAN_MOTION_DDOT></tleParameters></data></segment></body></omm>
<omm id="CCSDS_OMM_VERS" version="2.0">
<header><CREATION_DATE/><ORIGINATOR/></header><body><segment><metadata><OBJECT_NAME>KUIPER-00049</OBJECT_NAME><OBJECT_ID>2025-134K</OBJECT_ID><CENTER_NAME>EARTH</CENTER_NAME><REF_FRAME>TEME</REF_FRAME><TIME_SYSTEM>UTC</TIME_SYSTEM><MEAN_ELEMENT_THEORY>SGP4</MEAN_ELEMENT_THEORY></metadata><data><meanElements><EPOCH>2026-01-18T11:01:13.279872</EPOCH><MEAN_MOTION>14.79948521</MEAN_MOTION><ECCENTRICITY>.00022627</ECCENTRICITY><INCLINATION>51.9008</INCLINATION><RA_OF_ASC_NODE>91.1735</RA_OF_ASC_NODE><ARG_OF_PERICENTER>128.6269</ARG_OF_PERICENTER><MEAN_ANOMALY>231.4896</MEAN_ANOMALY></meanElements><tleParameters><EPHEMERIS_TYPE>0</EPHEMERIS_TYPE><CLASSIFICATION_TYPE>U</CLASSIFICATION_TYPE><NORAD_CAT_ID>64509</NORAD_CAT_ID><ELEMENT_SET_NO>999</ELEMENT_SET_NO><REV_AT_EPOCH>3269</REV_AT_EPOCH><BSTAR>.6329223E-3</BSTAR><MEAN_MOTION_DOT>.4609E-4</MEAN_MOTION_DOT><MEAN_MOTION_DDOT>0</MEAN_MOTION_DDOT></tleParameters></data></segment></body></omm>
<omm id="CCSDS_OMM_VERS" version="2.0">
<header><CREATION_DATE/><ORIGINATOR/></header><body><segment><metadata><OBJECT_NAME>KUIPER-00050</OBJECT_NAME><OBJECT_ID>2025-134L</OBJECT_ID><CENTER_NAME>EARTH</CENTER_NAME><REF_FRAME>TEME</REF_FRAME><TIME_SYSTEM>UTC</TIME_SYSTEM><MEAN_ELEMENT_THEORY>SGP4</MEAN_ELEMENT_THEORY></metadata><data><meanElements><EPOCH>2026-01-18T21:35:32.812512</EPOCH><MEAN_MOTION>14.97026182</MEAN_MOTION><ECCENTRICITY>.00047659</ECCENTRICITY><INCLINATION>51.8907</INCLINATION><RA_OF_ASC_NODE>78.2429</RA_OF_ASC_NODE><ARG_OF_PERICENTER>142.5373</ARG_OF_PERICENTER><MEAN_ANOMALY>217.5930</MEAN_ANOMALY></meanElements><tleParameters><EPHEMERIS_TYPE>0</EPHEMERIS_TYPE><CLASSIFICATION_TYPE>U</CLASSIFICATION_TYPE><NORAD_CAT_ID>64510</NORAD_CAT_ID><ELEMENT_SET_NO>999</ELEMENT_SET_NO><REV_AT_EPOCH>3291</REV_AT_EPOCH><BSTAR>.57168607E-3</BSTAR><MEAN_MOTION_DOT>.6402E-4</MEAN_MOTION_DOT><MEAN_MOTION_DDOT>0</MEAN_MOTION_DDOT></tleParameters></data></segment></body></omm>
<omm id="CCSDS_OMM_VERS" version="2.0">
<header><CREATION_DATE/><ORIGINATOR/></header><body><segment><metadata><OBJECT_NAME>KUIPER-00051</OBJECT_NAME><OBJECT_ID>2025-134M</OBJECT_ID><CENTER_NAME>EARTH</CENTER_NAME><REF_FRAME>TEME</REF_FRAME><TIME_SYSTEM>UTC</TIME_SYSTEM><MEAN_ELEMENT_THEORY>SGP4</MEAN_ELEMENT_THEORY></metadata><data><meanElements><EPOCH>2026-01-18T20:48:39.954240</EPOCH><MEAN_MOTION>14.79917208</MEAN_MOTION><ECCENTRICITY>.00015681</ECCENTRICITY><INCLINATION>51.9022</INCLINATION><RA_OF_ASC_NODE>86.9412</RA_OF_ASC_NODE><ARG_OF_PERICENTER>133.4654</ARG_OF_PERICENTER><MEAN_ANOMALY>226.6439</MEAN_ANOMALY></meanElements><tleParameters><EPHEMERIS_TYPE>0</EPHEMERIS_TYPE><CLASSIFICATION_TYPE>U</CLASSIFICATION_TYPE><NORAD_CAT_ID>64511</NORAD_CAT_ID><ELEMENT_SET_NO>999</ELEMENT_SET_NO><REV_AT_EPOCH>3278</REV_AT_EPOCH><BSTAR>.47553909E-3</BSTAR><MEAN_MOTION_DOT>.3404E-4</MEAN_MOTION_DOT><MEAN_MOTION_DDOT>0</MEAN_MOTION_DDOT></tleParameters></data></segment></body></omm>
<omm id="CCSDS_OMM_VERS" version="2.0">
<header><CREATION_DATE/><ORIGINATOR/></header><body><segment><metadata><OBJECT_NAME>KUIPER-00052</OBJECT_NAME><OBJECT_ID>2025-134N</OBJECT_ID><CENTER_NAME>EARTH</CENTER_NAME><REF_FRAME>TEME</REF_FRAME><TIME_SYSTEM>UTC</TIME_SYSTEM><MEAN_ELEMENT_THEORY>SGP4</MEAN_ELEMENT_THEORY></metadata><data><meanElements><EPOCH>2026-01-18T22:00:03.000096</EPOCH><MEAN_MOTION>15.80645440</MEAN_MOTION><ECCENTRICITY>.00031667</ECCENTRICITY><INCLINATION>51.8589</INCLINATION><RA_OF_ASC_NODE>4.2382</RA_OF_ASC_NODE><ARG_OF_PERICENTER>115.1577</ARG_OF_PERICENTER><MEAN_ANOMALY>201.3279</MEAN_ANOMALY></meanElements><tleParameters><EPHEMERIS_TYPE>0</EPHEMERIS_TYPE><CLASSIFICATION_TYPE>U</CLASSIFICATION_TYPE><NORAD_CAT_ID>64512</NORAD_CAT_ID><ELEMENT_SET_NO>999</ELEMENT_SET_NO><REV_AT_EPOCH>594</REV_AT_EPOCH><BSTAR>.4942366E-3</BSTAR><MEAN_MOTION_DOT>.97093E-3</MEAN_MOTION_DOT><MEAN_MOTION_DDOT>0</MEAN_MOTION_DDOT></tleParameters></data></segment></body></omm>

</ndm>
